[{"OBJECT_NAME":"BEIDOU-3 G2 (PRN 144)","OBJECT_ID":"2020-017A","EPOCH":"2023-04-26T20:28:16.040352","MEAN_MOTION":1.00272134,"ECCENTRICITY":0.0002106,"INCLINATION":1.9994,"RA_OF_ASC_NODE":9.1736,"ARG_OF_PERICENTER":67.6196,"MEAN_ANOMALY":164.8991,"EPHEMERIS_TYPE":0,"CLASSIFICATION_TYPE":"U","NORAD_CAT_ID":45344,"ELEMENT_SET_NO":999,"REV_AT_EPOCH":1175,"BSTAR":0,"MEAN_MOTION_DOT":-1.43e-6,"MEAN_MOTION_DDOT":0},{"OBJECT_NAME":"BEIDOU-3 G3 (PRN 143)","OBJECT_ID":"2020-040A","EPOCH":"2023-04-27T13:29:58.202880","MEAN_MOTION":1.00275909,"ECCENTRICITY":0.0006516,"INCLINATION":0.7908,"RA_OF_ASC_NODE":322.9174,"ARG_OF_PERICENTER":327.8029,"MEAN_ANOMALY":237.6093,"EPHEMERIS_TYPE":0,"CLASSIFICATION_TYPE":"U","NORAD_CAT_ID":45807,"ELEMENT_SET_NO":999,"REV_AT_EPOCH":1058,"BSTAR":0,"MEAN_MOTION_DOT":-3.56e-6,"MEAN_MOTION_DDOT":0},{"OBJECT_NAME":"GALAXY 30 (WAAS\/PRN 135)","OBJECT_ID":"2020-056C","EPOCH":"2023-04-26T15:40:05.243808","MEAN_MOTION":1.00271324,"ECCENTRICITY":0.0001904,"INCLINATION":0.0157,"RA_OF_ASC_NODE":259.2736,"ARG_OF_PERICENTER":129.1591,"MEAN_ANOMALY":295.9778,"EPHEMERIS_TYPE":0,"CLASSIFICATION_TYPE":"U","NORAD_CAT_ID":46114,"ELEMENT_SET_NO":999,"REV_AT_EPOCH":978,"BSTAR":0,"MEAN_MOTION_DOT":3.5e-7,"MEAN_MOTION_DDOT":0}]
